NAYIF-1 (EO-88)         
1 42017U 17008BX  23106.69901309  .00136458  00000+0  16104-2 0  9999
2 42017  97.2186 176.1530 0004368 214.8647 145.2325 15.60876161343828
ZHUHAI-1 02 (CAS-4B)    
1 42759U 17034B   23106.83168196  .00009411  00000+0  48859-3 0  9997
2 42759  43.0160  96.4832 0009921  58.3025   9.7413 15.16247448322327
ZHUHAI-1 01 (CAS-4A)    
1 42761U 17034D   23106.84984150  .00010951  00000+0  56531-3 0  9994
2 42761  43.0157  94.9365 0010277  61.3426  10.9055 15.16315813322334
MAX VALIER SAT          
1 42778U 17036P   23106.85678230  .00030094  00000+0  85861-3 0  9992
2 42778  97.1646 143.2436 0006685 333.1340  26.9557 15.35973509323300
RADFXSAT (FOX-1B)       
1 43017U 17073E   23106.62693789  .00010202  00000+0  72610-3 0  9998
2 43017  97.6393 353.4070 0234420 272.4669  84.9730 14.85262474292048
FOX-1D (AO-92)          
1 43137U 18004AC  23106.75941894  .00045722  00000+0  10779-2 0  9995
2 43137  97.3320 185.4709 0005043  11.1603 348.9755 15.41759937292838
DIWATA-2B               
1 43678U 18084H   23107.21340936  .00002545  00000+0  24917-3 0  9991
2 43678  98.0109 249.9955 0009696  11.3201 348.8277 14.93193420243169
ES'HAIL 2               
1 43700U 18090A   23106.90480304  .00000130  00000+0  00000+0 0  9994
2 43700   0.0339  88.0744 0001283 325.7215 142.5015  1.00273171 16075
FOX-1CLIFF (AO-95)      
1 43770U 18099N   23106.90140496  .00008285  00000+0  68435-3 0  9994
2 43770  97.5765 170.0989 0012133 337.1223  22.9458 14.99155063238429
ITASAT 1                
1 43786U 18099AE  23106.75845721  .00006721  00000+0  55918-3 0  9992
2 43786  97.5805 170.9964 0013821 331.8564  28.1910 14.98929089238446
JY1SAT (JO-97)          
1 43803U 18099AX  23107.16344278  .00008966  00000+0  72259-3 0  9999
2 43803  97.5742 171.3296 0012531 317.8412  42.1847 15.00074661238549
UWE-4                   
1 43880U 18111E   23106.72729375  .00010820  00000+0  83985-3 0  9995
2 43880  97.6437  12.8829 0017504  29.8662 330.3557 15.01406908235146
NEXUS (FO-99)           
1 43937U 19003F   23106.82411263  .00059255  00000+0  11866-2 0  9997
2 43937  97.0950 135.0427 0016853 137.3140 222.9422 15.46395572236542
JAISAT-1                
1 44419U 19038F   23106.89956556  .00033177  00000+0  12361-2 0  9993
2 44419  97.6708  86.7277 0017071 148.7199 211.5058 15.27248237209175
DUCHIFAT-3              
1 44854U 19089C   23107.08189528  .00010321  00000+0  71368-3 0  9990
2 44854  36.9628  96.2054 0008670 191.7521 242.3154 15.05186966183622
CAS-6 (TIANQIN 1)       
1 44881U 19093C   23107.21244468  .00001501  00000+0  19387-3 0  9998
2 44881  97.8621 186.7021 0013328 277.5569  82.4143 14.82378673179764
RS-44 & BREEZE-KM R/B   
1 44909U 19096E   23106.84969971  .00000020  00000+0  42220-4 0  9991
2 44909  82.5263  28.6989 0217010 330.6901  28.2166 12.79720104154311
BY70-2                  
1 45857U 20042B   23106.93665919  .00023283  00000+0  25357-2 0  9998
2 45857  97.9261 186.7328 0010429 196.5088 163.5941 14.87958135150425
SALSAT                  
1 46495U 20068K   23106.85343585  .00008611  00000+0  57585-3 0  9995
2 46495  97.7652  54.2545 0014908 335.4153  24.6362 15.07117271139836
RADFXSAT-2 (AO-109)     
1 47311U 21002C   23106.85251034  .00037903  00000+0  10748-2 0  9994
2 47311  60.6812 293.7890 0025965 143.2285 217.0596 15.35679098124854
UVSQ-SAT                
1 47438U 21006AB  23106.88154638  .00021659  00000+0  93658-3 0  9996
2 47438  97.3916 164.9346 0008491 298.8332  61.2051 15.22441265123310
DIY-1 (ARDUIQUBE)       
1 47963U 21022AH  23107.16223450  .00159475  00000+0  37050-2 0  9999
2 47963  97.5043  13.2408 0013003 137.0994 223.1269 15.41650024113139
XW-3 (CAS-9)            
1 50466U 21131B   23107.18444349  .00001193  00000+0  40231-3 0  9995
2 50466  98.5523 188.9220 0003469 336.3105  23.7922 14.38830097 68583
TEVEL-3                 
1 50988U 22002E   23107.19146472  .00024431  00000+0  10497-2 0  9999
2 50988  97.4386 174.6636 0009777  94.4258 327.8713 15.22623055 69472
TEVEL-8                 
1 50989U 22002F   23106.81903699  .00024309  00000+0  10470-2 0  9995
2 50989  97.4403 174.3466 0009676  96.0836 357.4122 15.22543675 69415
TEVEL-5                 
1 50998U 22002Q   23107.10133458  .00025934  00000+0  10900-2 0  9999
2 50998  97.4379 174.8907 0010634  89.0233 332.4306 15.23352815 69480
TEVEL-6                 
1 50999U 22002R   23107.22660042  .00026323  00000+0  11059-2 0  9996
2 50999  97.4371 175.0104 0010251  89.6141 306.2922 15.23366322 69508
TEVEL-1                 
1 51013U 22002AF  23106.88093834  .00024116  00000+0  10381-2 0  9999
2 51013  97.4379 174.3080 0009505  95.8419  21.2360 15.22566704 69422
TEVEL-7                 
1 51062U 22002CG  23107.14233353  .00025044  00000+0  10774-2 0  9992
2 51062  97.4401 174.6429 0009639  91.6515 324.0768 15.22576752 69465
TEVEL-4                 
1 51063U 22002CH  23107.14656726  .00024929  00000+0  10738-2 0  9997
2 51063  97.4404 174.6353 0009679  91.5074 324.3726 15.22534911 69466
TEVEL-2                 
1 51069U 22002CP  23107.26081579  .00025253  00000+0  10845-2 0  9994
2 51069  97.4384 174.7070 0009705  93.5743 338.4924 15.22635106 69487
GREENCUBE               
1 53106U 22080B   23102.68218782 -.00000003  00000+0  00000+0 0  9999
2 53106  70.1748 342.4876 0008257 200.3328 159.7004  6.42557159 17545
RS29S (SXC3-2110 CYCLO*)
1 53373U 22096D   23106.89258101  .00038382  00000+0  11263-2 0  9994
2 53373  97.4184  12.6389 0003051  67.6754 356.4770 15.35058420 38274
RS32S (SXC3-212 MONITO*)
1 53374U 22096E   23106.91036478  .00033212  00000+0  98984-3 0  9992
2 53374  97.4160  12.6182 0002868  58.5575  71.7325 15.34598955 38279
RS34S (SXC3-218 KUZBAS*)
1 53375U 22096F   23107.19495064  .00030042  00000+0  93728-3 0  9993
2 53375  97.4187  12.7340 0002734  72.8200  81.5737 15.33166795 38304
RS23S (SXC3-21 UTMN)    
1 53376U 22096G   23107.23655626  .00031107  00000+0  95669-3 0  9990
2 53376  97.4174  12.8245 0002751  64.9865  87.0861 15.33616193 38316
RS28S (SXC3-214 MIET-A*)
1 53377U 22096H   23106.92804832  .00027575  00000+0  86538-3 0  9990
2 53377  97.4193  12.4734 0002384  67.4257  63.1692 15.32997811 38261
RS26S (KAI-1)           
1 53378U 22096J   23107.10785133  .00023190  00000+0  75279-3 0  9993
2 53378  97.4204  12.5331 0002230  62.0485  46.1696 15.31949940 38289
RS19S (SXC3-219 ISOI)   
1 53381U 22096M   23106.89437656  .00028485  00000+0  87308-3 0  9994
2 53381  97.4185  12.6303 0001408 290.5056 133.7230 15.33745752 38272
RS21S (CUBESX-HSE-2)    
1 53383U 22096P   23107.15517021  .00030453  00000+0  92567-3 0  9992
2 53383  97.4177  12.9308 0001721 314.5702 183.7344 15.33995277 38311
RS30S (SXC3-217 SIREN)  
1 53384U 22096Q   23107.13547579  .00025116  00000+0  78892-3 0  9997
2 53384  97.4192  12.8111 0001693 294.3711 201.7768 15.32990242 38309
RS20S (GEOSCAN-EDELVEIS)
1 53385U 22096R   23107.12621263  .00040415  00000+0  11322-2 0  9993
2 53385  97.4178  13.2609 0001560 299.2790 196.8799 15.36502807 38369
RS33S (SXC3-215 VIZARD) 
1 53386U 22096S   23107.09349264  .00051574  00000+0  13314-2 0  9999
2 53386  97.4173  13.5945 0002024 296.3978 170.7734 15.38976498 38377
CAS-5A (FO-118)         
1 54684U 22167C   23107.20129692  .00017654  00000+0  10144-2 0  9993
2 54684  97.5514 245.2951 0014524 182.3138 301.2663 15.12473528 19458
